<?xml version="1.0" encoding="UTF-8"?>
<gpx version="1.1" creator="acn-e2e-fixtures" xmlns="http://www.topografix.com/GPX/1/1">
  <trk>
    <name>Elevation distance guides route</name>
    <trkseg>
      <trkpt lat="51.500000" lon="-0.200000"><ele>20.0</ele></trkpt>
      <trkpt lat="51.500000" lon="-0.197114"><ele>20.0</ele></trkpt>
      <trkpt lat="51.500000" lon="-0.194228"><ele>20.0</ele></trkpt>
      <trkpt lat="51.500000" lon="-0.191342"><ele>20.0</ele></trkpt>
      <trkpt lat="51.500000" lon="-0.188456"><ele>20.0</ele></trkpt>
      <trkpt lat="51.500000" lon="-0.185570"><ele>20.0</ele></trkpt>
      <trkpt lat="51.500000" lon="-0.182684"><ele>20.0</ele></trkpt>
      <trkpt lat="51.500000" lon="-0.179797"><ele>20.0</ele></trkpt>
      <trkpt lat="51.500000" lon="-0.176911"><ele>20.0</ele></trkpt>
      <trkpt lat="51.500000" lon="-0.174025"><ele>20.0</ele></trkpt>
      <trkpt lat="51.500000" lon="-0.171139"><ele>20.0</ele></trkpt>
      <trkpt lat="51.500000" lon="-0.168253"><ele>20.0</ele></trkpt>
      <trkpt lat="51.500000" lon="-0.165367"><ele>20.0</ele></trkpt>
      <trkpt lat="51.500000" lon="-0.162481"><ele>20.0</ele></trkpt>
      <trkpt lat="51.500000" lon="-0.159595"><ele>20.0</ele></trkpt>
      <trkpt lat="51.500000" lon="-0.156709"><ele>20.0</ele></trkpt>
      <trkpt lat="51.500000" lon="-0.153823"><ele>20.0</ele></trkpt>
      <trkpt lat="51.500000" lon="-0.150937"><ele>20.0</ele></trkpt>
      <trkpt lat="51.500000" lon="-0.148051"><ele>20.0</ele></trkpt>
      <trkpt lat="51.500000" lon="-0.145165"><ele>20.0</ele></trkpt>
      <trkpt lat="51.500000" lon="-0.142279"><ele>20.0</ele></trkpt>
      <trkpt lat="51.500000" lon="-0.139392"><ele>20.0</ele></trkpt>
      <trkpt lat="51.500000" lon="-0.136506"><ele>20.0</ele></trkpt>
      <trkpt lat="51.500000" lon="-0.133620"><ele>20.0</ele></trkpt>
      <trkpt lat="51.500000" lon="-0.130734"><ele>20.0</ele></trkpt>
      <trkpt lat="51.500000" lon="-0.127848"><ele>20.0</ele></trkpt>
      <trkpt lat="51.500000" lon="-0.124962"><ele>20.0</ele></trkpt>
      <trkpt lat="51.500000" lon="-0.122076"><ele>20.0</ele></trkpt>
      <trkpt lat="51.500000" lon="-0.119190"><ele>20.0</ele></trkpt>
      <trkpt lat="51.500000" lon="-0.116304"><ele>20.0</ele></trkpt>
      <trkpt lat="51.500000" lon="-0.113418"><ele>20.0</ele></trkpt>
      <trkpt lat="51.500000" lon="-0.110532"><ele>20.0</ele></trkpt>
      <trkpt lat="51.500000" lon="-0.107646"><ele>20.0</ele></trkpt>
      <trkpt lat="51.500000" lon="-0.104760"><ele>20.0</ele></trkpt>
      <trkpt lat="51.500000" lon="-0.101874"><ele>20.0</ele></trkpt>
      <trkpt lat="51.500000" lon="-0.098987"><ele>20.0</ele></trkpt>
      <trkpt lat="51.500000" lon="-0.096101"><ele>20.0</ele></trkpt>
      <trkpt lat="51.500000" lon="-0.093215"><ele>20.0</ele></trkpt>
      <trkpt lat="51.500000" lon="-0.090329"><ele>20.0</ele></trkpt>
      <trkpt lat="51.500000" lon="-0.087443"><ele>20.0</ele></trkpt>
      <trkpt lat="51.500000" lon="-0.084557"><ele>20.0</ele></trkpt>
      <trkpt lat="51.500000" lon="-0.081671"><ele>20.0</ele></trkpt>
      <trkpt lat="51.500000" lon="-0.078785"><ele>20.0</ele></trkpt>
      <trkpt lat="51.500000" lon="-0.075899"><ele>20.0</ele></trkpt>
      <trkpt lat="51.500000" lon="-0.073013"><ele>20.0</ele></trkpt>
      <trkpt lat="51.500000" lon="-0.070127"><ele>20.0</ele></trkpt>
      <trkpt lat="51.500000" lon="-0.067241"><ele>20.0</ele></trkpt>
      <trkpt lat="51.500000" lon="-0.064355"><ele>20.0</ele></trkpt>
      <trkpt lat="51.500000" lon="-0.061469"><ele>20.0</ele></trkpt>
      <trkpt lat="51.500000" lon="-0.058582"><ele>20.0</ele></trkpt>
      <trkpt lat="51.500000" lon="-0.055696"><ele>20.0</ele></trkpt>
      <trkpt lat="51.500000" lon="-0.052810"><ele>20.0</ele></trkpt>
      <trkpt lat="51.500000" lon="-0.049924"><ele>20.0</ele></trkpt>
      <trkpt lat="51.500000" lon="-0.047038"><ele>20.0</ele></trkpt>
      <trkpt lat="51.500000" lon="-0.044152"><ele>20.0</ele></trkpt>
      <trkpt lat="51.500000" lon="-0.041266"><ele>20.0</ele></trkpt>
      <trkpt lat="51.500000" lon="-0.038380"><ele>20.0</ele></trkpt>
      <trkpt lat="51.500000" lon="-0.035494"><ele>20.0</ele></trkpt>
      <trkpt lat="51.500000" lon="-0.032608"><ele>20.0</ele></trkpt>
      <trkpt lat="51.500000" lon="-0.029722"><ele>20.0</ele></trkpt>
      <trkpt lat="51.500000" lon="-0.026836"><ele>20.0</ele></trkpt>
      <trkpt lat="51.500000" lon="-0.023950"><ele>20.0</ele></trkpt>
      <trkpt lat="51.500000" lon="-0.021064"><ele>20.0</ele></trkpt>
      <trkpt lat="51.500000" lon="-0.018177"><ele>20.0</ele></trkpt>
      <trkpt lat="51.500000" lon="-0.015291"><ele>20.0</ele></trkpt>
      <trkpt lat="51.500000" lon="-0.012405"><ele>20.0</ele></trkpt>
      <trkpt lat="51.500000" lon="-0.009519"><ele>20.0</ele></trkpt>
      <trkpt lat="51.500000" lon="-0.006633"><ele>20.0</ele></trkpt>
      <trkpt lat="51.500000" lon="-0.003747"><ele>20.0</ele></trkpt>
      <trkpt lat="51.500000" lon="-0.000861"><ele>20.0</ele></trkpt>
      <trkpt lat="51.500000" lon="0.002025"><ele>20.0</ele></trkpt>
      <trkpt lat="51.500000" lon="0.004911"><ele>20.0</ele></trkpt>
      <trkpt lat="51.500000" lon="0.007797"><ele>20.0</ele></trkpt>
      <trkpt lat="51.500000" lon="0.010683"><ele>20.0</ele></trkpt>
      <trkpt lat="51.500000" lon="0.013569"><ele>20.0</ele></trkpt>
      <trkpt lat="51.500000" lon="0.016455"><ele>20.0</ele></trkpt>
      <trkpt lat="51.500000" lon="0.019342"><ele>20.0</ele></trkpt>
      <trkpt lat="51.500000" lon="0.022228"><ele>20.0</ele></trkpt>
      <trkpt lat="51.500000" lon="0.025114"><ele>20.0</ele></trkpt>
      <trkpt lat="51.500000" lon="0.028000"><ele>20.0</ele></trkpt>
      <trkpt lat="51.500000" lon="0.030886"><ele>20.0</ele></trkpt>
      <trkpt lat="51.500000" lon="0.033772"><ele>20.0</ele></trkpt>
      <trkpt lat="51.500000" lon="0.036658"><ele>20.0</ele></trkpt>
      <trkpt lat="51.500000" lon="0.039544"><ele>20.0</ele></trkpt>
      <trkpt lat="51.500000" lon="0.042430"><ele>20.0</ele></trkpt>
      <trkpt lat="51.500000" lon="0.045316"><ele>20.0</ele></trkpt>
      <trkpt lat="51.500000" lon="0.048202"><ele>20.0</ele></trkpt>
      <trkpt lat="51.500000" lon="0.051088"><ele>20.0</ele></trkpt>
      <trkpt lat="51.500000" lon="0.053974"><ele>20.0</ele></trkpt>
      <trkpt lat="51.500000" lon="0.056860"><ele>20.0</ele></trkpt>
      <trkpt lat="51.500000" lon="0.059747"><ele>20.0</ele></trkpt>
      <trkpt lat="51.500000" lon="0.062633"><ele>20.0</ele></trkpt>
      <trkpt lat="51.500000" lon="0.065519"><ele>20.0</ele></trkpt>
      <trkpt lat="51.500000" lon="0.068405"><ele>20.0</ele></trkpt>
      <trkpt lat="51.500000" lon="0.071291"><ele>20.0</ele></trkpt>
      <trkpt lat="51.500000" lon="0.074177"><ele>20.0</ele></trkpt>
      <trkpt lat="51.500000" lon="0.077063"><ele>20.0</ele></trkpt>
      <trkpt lat="51.500000" lon="0.079949"><ele>20.0</ele></trkpt>
      <trkpt lat="51.500000" lon="0.082835"><ele>20.0</ele></trkpt>
      <trkpt lat="51.500000" lon="0.085721"><ele>20.0</ele></trkpt>
      <trkpt lat="51.500000" lon="0.088607"><ele>20.0</ele></trkpt>
      <trkpt lat="51.500000" lon="0.091493"><ele>20.0</ele></trkpt>
      <trkpt lat="51.500000" lon="0.094379"><ele>20.0</ele></trkpt>
      <trkpt lat="51.500000" lon="0.097265"><ele>20.0</ele></trkpt>
      <trkpt lat="51.500000" lon="0.100152"><ele>20.0</ele></trkpt>
      <trkpt lat="51.500000" lon="0.103038"><ele>20.0</ele></trkpt>
      <trkpt lat="51.500000" lon="0.105924"><ele>20.0</ele></trkpt>
      <trkpt lat="51.500000" lon="0.108810"><ele>20.0</ele></trkpt>
      <trkpt lat="51.500000" lon="0.111696"><ele>20.0</ele></trkpt>
      <trkpt lat="51.500000" lon="0.114582"><ele>20.0</ele></trkpt>
      <trkpt lat="51.500000" lon="0.117468"><ele>20.0</ele></trkpt>
      <trkpt lat="51.500000" lon="0.120354"><ele>20.0</ele></trkpt>
      <trkpt lat="51.500000" lon="0.123240"><ele>20.0</ele></trkpt>
      <trkpt lat="51.500000" lon="0.126126"><ele>20.0</ele></trkpt>
      <trkpt lat="51.500000" lon="0.129012"><ele>20.0</ele></trkpt>
      <trkpt lat="51.500000" lon="0.131898"><ele>20.0</ele></trkpt>
      <trkpt lat="51.500000" lon="0.134784"><ele>20.0</ele></trkpt>
      <trkpt lat="51.500000" lon="0.137670"><ele>20.0</ele></trkpt>
      <trkpt lat="51.500000" lon="0.140557"><ele>20.0</ele></trkpt>
      <trkpt lat="51.500000" lon="0.143443"><ele>20.0</ele></trkpt>
      <trkpt lat="51.500000" lon="0.146329"><ele>20.0</ele></trkpt>
      <trkpt lat="51.500000" lon="0.149215"><ele>20.0</ele></trkpt>
      <trkpt lat="51.500000" lon="0.152101"><ele>20.0</ele></trkpt>
      <trkpt lat="51.500000" lon="0.154987"><ele>20.0</ele></trkpt>
      <trkpt lat="51.500000" lon="0.157873"><ele>20.0</ele></trkpt>
      <trkpt lat="51.500000" lon="0.160759"><ele>20.0</ele></trkpt>
    </trkseg>
  </trk>
</gpx>
