<?xml version="1.0" encoding="UTF-8"?>
<gpx version="1.1" creator="acn-e2e-fixtures" xmlns="http://www.topografix.com/GPX/1/1">
  <trk>
    <name>Sort test: no elevation route</name>
    <trkseg>
      <trkpt lat="51.530000" lon="-0.160000"></trkpt>
      <trkpt lat="51.532000" lon="-0.160000"></trkpt>
      <trkpt lat="51.534000" lon="-0.160000"></trkpt>
      <trkpt lat="51.536000" lon="-0.160000"></trkpt>
      <trkpt lat="51.538000" lon="-0.160000"></trkpt>
      <trkpt lat="51.540000" lon="-0.160000"></trkpt>
      <trkpt lat="51.542000" lon="-0.160000"></trkpt>
      <trkpt lat="51.544000" lon="-0.160000"></trkpt>
    </trkseg>
  </trk>
</gpx>
