<?xml version="1.0" encoding="UTF-8"?>
<gpx version="1.1" creator="acn-e2e-fixtures" xmlns="http://www.topografix.com/GPX/1/1">
  <trk>
    <name>Sort test: short flat route</name>
    <trkseg>
      <trkpt lat="51.520000" lon="-0.150000"><ele>40.0</ele></trkpt>
      <trkpt lat="51.520800" lon="-0.150000"><ele>40.0</ele></trkpt>
      <trkpt lat="51.521600" lon="-0.150000"><ele>40.0</ele></trkpt>
      <trkpt lat="51.522400" lon="-0.150000"><ele>40.0</ele></trkpt>
      <trkpt lat="51.523200" lon="-0.150000"><ele>40.0</ele></trkpt>
      <trkpt lat="51.524000" lon="-0.150000"><ele>40.0</ele></trkpt>
      <trkpt lat="51.524800" lon="-0.150000"><ele>40.0</ele></trkpt>
      <trkpt lat="51.525600" lon="-0.150000"><ele>40.0</ele></trkpt>
    </trkseg>
  </trk>
</gpx>
