<?xml version="1.0" encoding="UTF-8"?>
<gpx version="1.1" creator="acn-e2e-fixtures" xmlns="http://www.topografix.com/GPX/1/1">
  <trk>
    <name>Sort test: long hilly route</name>
    <trkseg>
      <trkpt lat="51.550000" lon="-0.170000"><ele>60.0</ele></trkpt>
      <trkpt lat="51.555500" lon="-0.170000"><ele>90.0</ele></trkpt>
      <trkpt lat="51.561000" lon="-0.170000"><ele>120.0</ele></trkpt>
      <trkpt lat="51.566500" lon="-0.170000"><ele>150.0</ele></trkpt>
      <trkpt lat="51.572000" lon="-0.170000"><ele>180.0</ele></trkpt>
      <trkpt lat="51.577500" lon="-0.170000"><ele>210.0</ele></trkpt>
      <trkpt lat="51.583000" lon="-0.170000"><ele>240.0</ele></trkpt>
      <trkpt lat="51.588500" lon="-0.170000"><ele>270.0</ele></trkpt>
    </trkseg>
  </trk>
</gpx>
