<?xml version="1.0" encoding="UTF-8"?>
<gpx version="1.1" creator="acn-e2e-fixtures" xmlns="http://www.topografix.com/GPX/1/1">
  <trk>
    <name>Two climbs route</name>
    <trkseg>
      <trkpt lat="51.500000" lon="-0.080000"><ele>10.0</ele></trkpt>
      <trkpt lat="51.500000" lon="-0.079278"><ele>10.0</ele></trkpt>
      <trkpt lat="51.500000" lon="-0.078557"><ele>10.0</ele></trkpt>
      <trkpt lat="51.500000" lon="-0.077835"><ele>10.0</ele></trkpt>
      <trkpt lat="51.500000" lon="-0.077114"><ele>10.0</ele></trkpt>
      <trkpt lat="51.500000" lon="-0.076392"><ele>10.0</ele></trkpt>
      <trkpt lat="51.500000" lon="-0.075671"><ele>10.0</ele></trkpt>
      <trkpt lat="51.500000" lon="-0.074949"><ele>10.0</ele></trkpt>
      <trkpt lat="51.500000" lon="-0.074228"><ele>10.0</ele></trkpt>
      <trkpt lat="51.500000" lon="-0.073506"><ele>10.0</ele></trkpt>
      <trkpt lat="51.500000" lon="-0.072785"><ele>10.0</ele></trkpt>
      <trkpt lat="51.500000" lon="-0.072063"><ele>13.0</ele></trkpt>
      <trkpt lat="51.500000" lon="-0.071342"><ele>16.0</ele></trkpt>
      <trkpt lat="51.500000" lon="-0.070620"><ele>19.0</ele></trkpt>
      <trkpt lat="51.500000" lon="-0.069899"><ele>22.0</ele></trkpt>
      <trkpt lat="51.500000" lon="-0.069177"><ele>25.0</ele></trkpt>
      <trkpt lat="51.500000" lon="-0.068456"><ele>28.0</ele></trkpt>
      <trkpt lat="51.500000" lon="-0.067734"><ele>31.0</ele></trkpt>
      <trkpt lat="51.500000" lon="-0.067013"><ele>34.0</ele></trkpt>
      <trkpt lat="51.500000" lon="-0.066291"><ele>37.0</ele></trkpt>
      <trkpt lat="51.500000" lon="-0.065570"><ele>40.0</ele></trkpt>
      <trkpt lat="51.500000" lon="-0.064848"><ele>43.0</ele></trkpt>
      <trkpt lat="51.500000" lon="-0.064127"><ele>46.0</ele></trkpt>
      <trkpt lat="51.500000" lon="-0.063405"><ele>49.0</ele></trkpt>
      <trkpt lat="51.500000" lon="-0.062684"><ele>52.0</ele></trkpt>
      <trkpt lat="51.500000" lon="-0.061962"><ele>46.0</ele></trkpt>
      <trkpt lat="51.500000" lon="-0.061241"><ele>40.0</ele></trkpt>
      <trkpt lat="51.500000" lon="-0.060519"><ele>34.0</ele></trkpt>
      <trkpt lat="51.500000" lon="-0.059797"><ele>28.0</ele></trkpt>
      <trkpt lat="51.500000" lon="-0.059076"><ele>22.0</ele></trkpt>
      <trkpt lat="51.500000" lon="-0.058354"><ele>32.0</ele></trkpt>
      <trkpt lat="51.500000" lon="-0.057633"><ele>42.0</ele></trkpt>
      <trkpt lat="51.500000" lon="-0.056911"><ele>52.0</ele></trkpt>
      <trkpt lat="51.500000" lon="-0.056190"><ele>62.0</ele></trkpt>
      <trkpt lat="51.500000" lon="-0.055468"><ele>72.0</ele></trkpt>
      <trkpt lat="51.500000" lon="-0.054747"><ele>82.0</ele></trkpt>
      <trkpt lat="51.500000" lon="-0.054025"><ele>92.0</ele></trkpt>
      <trkpt lat="51.500000" lon="-0.053304"><ele>102.0</ele></trkpt>
      <trkpt lat="51.500000" lon="-0.052582"><ele>112.0</ele></trkpt>
      <trkpt lat="51.500000" lon="-0.051861"><ele>122.0</ele></trkpt>
      <trkpt lat="51.500000" lon="-0.051139"><ele>132.0</ele></trkpt>
      <trkpt lat="51.500000" lon="-0.050418"><ele>142.0</ele></trkpt>
      <trkpt lat="51.500000" lon="-0.049696"><ele>152.0</ele></trkpt>
      <trkpt lat="51.500000" lon="-0.048975"><ele>162.0</ele></trkpt>
      <trkpt lat="51.500000" lon="-0.048253"><ele>172.0</ele></trkpt>
      <trkpt lat="51.500000" lon="-0.047532"><ele>182.0</ele></trkpt>
      <trkpt lat="51.500000" lon="-0.046810"><ele>192.0</ele></trkpt>
      <trkpt lat="51.500000" lon="-0.046089"><ele>202.0</ele></trkpt>
      <trkpt lat="51.500000" lon="-0.045367"><ele>212.0</ele></trkpt>
      <trkpt lat="51.500000" lon="-0.044646"><ele>222.0</ele></trkpt>
      <trkpt lat="51.500000" lon="-0.043924"><ele>222.0</ele></trkpt>
      <trkpt lat="51.500000" lon="-0.043203"><ele>222.0</ele></trkpt>
      <trkpt lat="51.500000" lon="-0.042481"><ele>222.0</ele></trkpt>
      <trkpt lat="51.500000" lon="-0.041760"><ele>222.0</ele></trkpt>
      <trkpt lat="51.500000" lon="-0.041038"><ele>222.0</ele></trkpt>
      <trkpt lat="51.500000" lon="-0.040317"><ele>222.0</ele></trkpt>
      <trkpt lat="51.500000" lon="-0.039595"><ele>222.0</ele></trkpt>
      <trkpt lat="51.500000" lon="-0.038873"><ele>222.0</ele></trkpt>
      <trkpt lat="51.500000" lon="-0.038152"><ele>222.0</ele></trkpt>
      <trkpt lat="51.500000" lon="-0.037430"><ele>222.0</ele></trkpt>
    </trkseg>
  </trk>
</gpx>
